STARLINK-4622           
1 53648U 22105A   22273.58334491 -.01219312  00000+0 -33871-1 0  9992
2 53648  97.6551 152.9576 0002250 140.7733 248.5105 15.39838398  1306
STARLINK-4386           
1 53649U 22105B   22273.66667824 -.01214422  00000+0 -39830-1 0  9999
2 53649  97.6553 153.0325 0002572 144.7024 151.4753 15.34707911  5033
STARLINK-4380           
1 53650U 22105C   22273.66667824 -.01212363  00000+0 -39630-1 0  9991
2 53650  97.6553 153.0317 0002297 139.4838 159.6976 15.34809489  5034
STARLINK-4388           
1 53651U 22105D   22273.66667824 -.01213984  00000+0 -39613-1 0  9993
2 53651  97.6553 153.0300 0002523 144.5940 156.4932 15.34866946  5038
STARLINK-4374           
1 53652U 22105E   22273.66667824 -.01211837  00000+0 -37843-1 0  9992
2 53652  97.6554 153.0402 0002212 139.0584 193.1767 15.36232963  5044
STARLINK-4390           
1 53653U 22105F   22273.58334491 -.01210849  00000+0 -37341-1 0  9990
2 53653  97.6554 152.9529 0002372 137.2952  98.4529 15.36617493  1302
STARLINK-4420           
1 53654U 22105G   22273.58334491 -.01210569  00000+0 -36918-1 0  9999
2 53654  97.6554 152.9520 0002311 134.6756 109.9595 15.36962224  1306
STARLINK-4470           
1 53655U 22105H   22273.58334491 -.01212997  00000+0 -37396-1 0  9998
2 53655  97.6555 152.9530 0002516 140.3439  96.2443 15.36630972  1300
STARLINK-4466           
1 53656U 22105J   22273.66667824 -.01211992  00000+0 -36734-1 0  9996
2 53656  97.6555 153.0393 0002218 139.3332 215.6266 15.37156976  5042
STARLINK-4469           
1 53657U 22105K   22273.58334491 -.01219329  00000+0 -37462-1 0  9990
2 53657  97.6553 152.9517 0002539 141.7306  97.8791 15.36753207  1308
STARLINK-4452           
1 53658U 22105L   22273.58334491 -.01215546  00000+0 -36486-1 0  9993
2 53658  97.6555 152.9526 0002450 142.9789 113.3978 15.37462697  1303
STARLINK-4463           
1 53659U 22105M   22273.66667824 -.01210341  00000+0 -36898-1 0  9997
2 53659  97.6553 153.0390 0002444 149.3152 201.3278 15.36971427  5042
STARLINK-4473           
1 53660U 22105N   22273.58334491 -.01221291  00000+0 -35935-1 0  9998
2 53660  97.6554 152.9516 0002491 140.9292 129.1993 15.38088659  1301
STARLINK-4472           
1 53661U 22105P   22273.66667824 -.01212130  00000+0 -36604-1 0  9993
2 53661  97.6555 153.0383 0002337 143.3890 214.9960 15.37269053  5047
STARLINK-4357           
1 53662U 22105Q   22273.58334491 -.01210532  00000+0 -35317-1 0  9990
2 53662  97.6555 152.9507 0002357 139.5327 136.9015 15.38323252  1300
STARLINK-4457           
1 53663U 22105R   22273.66667824 -.01212258  00000+0 -36489-1 0  9997
2 53663  97.6555 153.0373 0002536 148.5511 212.3897 15.37367814  5041
STARLINK-4471           
1 53664U 22105S   22273.66667824 -.01211539  00000+0 -35589-1 0  9999
2 53664  97.6555 153.0364 0002127 137.4237 240.9731 15.38118279  5044
STARLINK-4334           
1 53665U 22105T   22273.58334491 -.01232302  00000+0 -36264-1 0  9994
2 53665  97.6552 152.9501 0002707 146.8949 124.0754 15.38109934  1301
STARLINK-4449           
1 53666U 22105U   22273.58334491 -.01231306  00000+0 -35641-1 0  9996
2 53666  97.6553 152.9481 0002706 147.7122 135.5177 15.38612686  1301
STARLINK-4406           
1 53667U 22105V   22273.66667824 -.01212613  00000+0 -35770-1 0  9998
2 53667  97.6553 153.0386 0002404 145.2931 229.4941 15.37990278  5046
STARLINK-4458           
1 53668U 22105W   22273.66667824 -.01210733  00000+0 -35246-1 0  9998
2 53668  97.6553 153.0352 0002170 140.1494 245.1231 15.38391993  5045
STARLINK-4464           
1 53669U 22105X   22273.58334491 -.01217657  00000+0 -35493-1 0  9997
2 53669  97.6554 152.9477 0002671 145.3994 132.9021 15.38365667  1305
STARLINK-4459           
1 53670U 22105Y   22273.58334491 -.01265044  00000+0 -36316-1 0  9997
2 53670  97.6551 152.9471 0004389 255.8460  34.4311 15.38931398  1309
STARLINK-4440           
1 53671U 22105Z   22273.58334491 -.01222204  00000+0 -35189-1 0  9996
2 53671  97.6552 152.9476 0002413 139.5932 147.5158 15.38755789  1307
STARLINK-4428           
1 53672U 22105AA  22273.66667824 -.01210963  00000+0 -34682-1 0  9991
2 53672  97.6555 153.0326 0002224 141.0569 256.0212 15.38890381  5041
STARLINK-4456           
1 53673U 22105AB  22273.58334491 -.00834020  00000+0 -18175-1 0  9998
2 53673  97.6557 153.1290 0002440 144.4439 163.1548 15.46862060  1305
STARLINK-4620           
1 53674U 22105AC  22273.66667824 -.01210992  00000+0 -34445-1 0  9992
2 53674  97.6555 153.0325 0002334 144.3406 257.5903 15.39099103  5047
STARLINK-4617           
1 53675U 22105AD  22273.66667824 -.01209325  00000+0 -34733-1 0  9991
2 53675  97.6553 153.0334 0002146 139.5806 255.3378 15.38800910  5044
STARLINK-4621           
1 53676U 22105AE  22273.66667824 -.01208222  00000+0 -34125-1 0  9992
2 53676  97.6553 153.0308 0002077 136.4678 270.3087 15.39308707  5044
STARLINK-4579           
1 53677U 22105AF  22273.66667824 -.01210252  00000+0 -34562-1 0  9994
2 53677  97.6553 153.0333 0002315 144.4584 254.7267 15.38975588  5045
STARLINK-4418           
1 53678U 22105AG  22273.58334491 -.01223681  00000+0 -34041-1 0  9999
2 53678  97.6551 152.9450 0002504 145.6083 165.2676 15.39803586  1303
STARLINK-4632           
1 53679U 22105AH  22273.58334491 -.01243253  00000+0 -35108-1 0  9992
2 53679  97.6552 152.9447 0002432 142.5051 159.5457 15.39397528  1309
STARLINK-4630           
1 53680U 22105AJ  22273.66667824 -.01209572  00000+0 -33864-1 0  9995
2 53680  97.6552 153.0282 0002318 144.1615 269.5109 15.39577054  5042
STARLINK-4424           
1 53681U 22105AK  22273.66667824 -.01211177  00000+0 -34018-1 0  9992
2 53681  97.6553 153.0306 0002182 136.9176 273.4091 15.39484694  5042
STARLINK-4438           
1 53682U 22105AL  22273.66667824 -.01211437  00000+0 -33762-1 0  9997
2 53682  97.6552 153.0261 0002365 142.8504 274.3560 15.39719451  5049
STARLINK-4625           
1 53683U 22105AM  22273.66667824 -.01209834  00000+0 -33871-1 0  9997
2 53683  97.6553 153.0296 0002444 146.6142 266.4648 15.39576917  5044
STARLINK-4624           
1 53684U 22105AN  22273.58334491 -.01194939  00000+0 -41499-1 0  9994
2 53684  97.6556 152.9986 0002313 137.9005 169.3717 15.32856839  1308
STARLINK-4626           
1 53685U 22105AP  22273.66667824 -.01222358  00000+0 -34205-1 0  9997
2 53685  97.6554 153.0265 0005182 260.6436 153.8248 15.39594360  5045
STARLINK-4467           
1 53686U 22105AQ  22273.66667824 -.01210105  00000+0 -33563-1 0  9991
2 53686  97.6552 153.0255 0002112 136.4303 284.3578 15.39864101  5045
STARLINK-4569           
1 53687U 22105AR  22273.58334491 -.01224843  00000+0 -33754-1 0  9990
2 53687  97.6551 152.9407 0002519 146.5122 171.9866 15.40091270  1301
STARLINK-4571           
1 53688U 22105AS  22273.66667824 -.01207768  00000+0 -33145-1 0  9990
2 53688  97.6553 153.0246 0002353 144.0808 282.9828 15.40177003  5042
STARLINK-4562           
1 53689U 22105AT  22273.66667824 -.01209590  00000+0 -33288-1 0  9994
2 53689  97.6553 153.0255 0002123 137.4197 287.7759 15.40098827  5047
STARLINK-4570           
1 53690U 22105AU  22273.58334491 -.01212470  00000+0 -32664-1 0  9996
2 53690  97.6551 152.9394 0002308 141.4427 190.4072 15.40746954  1309
STARLINK-4560           
1 53691U 22105AV  22273.66667824 -.01209507  00000+0 -33077-1 0  9991
2 53691  97.6553 153.0239 0002304 142.0593 287.3220 15.40287179  5044
STARLINK-4572           
1 53692U 22105AW  22273.66667824 -.01208059  00000+0 -32567-1 0  9996
2 53692  97.6552 153.0256 0002239 140.7989 296.4461 15.40716639  5040
STARLINK-4566           
1 53693U 22105AX  22273.66667824 -.01209776  00000+0 -32500-1 0  9991
2 53693  97.6553 153.0246 0002205 138.6969 300.7708 15.40825840  5046
FALCON 9 DEB            
1 53694U 22105AY  22273.41489544  .00342432  49799-4  78074-3 0  9991
2 53694  97.6708 154.1214 0011230 156.9966 203.1815 15.97325784  4806
FALCON 9 DEB            
1 53695U 22105AZ  22273.40439316  .00337561  48952-4  73605-3 0  9995
2 53695  97.6648 154.1247 0009254 147.4462 212.7387 15.98174172  4809
FALCON 9 DEB            
1 53696U 22105BA  22273.31217064  .00427236  81491-4  79105-3 0  9995
2 53696  97.6538 154.0804 0013306 138.5727 221.6563 16.00976027  4790
FALCON 9 DEB            
1 53697U 22105BB  22273.30893963  .00411015  75154-4  76977-3 0  9994
2 53697  97.6537 154.0851 0012212 131.8212 228.4111 16.00805281  4799
YAOGAN-33 02            
1 53698U 22106A   22273.63559704  .00000116  00000+0  34461-4 0  9996
2 53698  98.1879 279.4550 0000759 104.5292 255.5980 14.59138950  4048
CZ-4C R/B               
1 53699U 22106B   22273.47296023  .00002311  00000+0  19517-3 0  9994
2 53699  98.2024 280.7177 0143723 321.5059  37.5974 14.91566864  4094
STARLINK-4725           
1 53700U 22107A   22273.58334491 -.00022522  00000+0 -15610-3 0  9990
2 53700  53.2132 146.9673 0001394 154.9538 341.6788 15.73256165  1303
STARLINK-4711           
1 53701U 22107B   22273.66667824 -.00005750  00000+0 -36515-4 0  9991
2 53701  53.2132 146.5535 0001633 136.2038 113.2885 15.73235756  4140
STARLINK-4724           
1 53702U 22107C   22273.58334491 -.00003276  00000+0 -18874-4 0  9993
2 53702  53.2131 146.9636 0001786 156.0236 342.3688 15.73262828  1306
STARLINK-4731           
1 53703U 22107D   22273.58334491 -.00020021  00000+0 -13823-3 0  9999
2 53703  53.2128 146.9681 0001520 145.6091 350.3695 15.73256468  1302
STARLINK-4714           
1 53704U 22107E   22273.58334491  .00084596  00000+0  60141-3 0  9990
2 53704  53.2132 146.9722 0001445 145.4662 348.8198 15.73188317  1309
STARLINK-4717           
1 53705U 22107F   22273.58334491 -.00009238  00000+0 -61289-4 0  9998
2 53705  53.2130 146.9706 0001658 145.6346 349.2188 15.73266380  1308
STARLINK-4716           
1 53706U 22107G   22273.58334491 -.00025169  00000+0 -17497-3 0  9991
2 53706  53.2130 146.9696 0001647 141.0917 354.3271 15.73261947  1303
STARLINK-4667           
